STARLINK-4700           
1 53722U 22107Y   26068.74825816 -.00001636  00000+0 -84774-4 0  9995
2 53722  53.2162 253.7706 0001149  89.3033 270.8091 15.08834191194417
DISKSAT A               
1 67222U 25305D   26068.54789610  .00013824  00000+0  90452-3 0  9996
2 67222  45.0023 251.6019 0004082 318.1929  41.8634 15.07741062 12266
